SHENZHOU-22             
1 66645U 25272A   25339.92408980  .00031271  00000+0  39601-3 0  9992
2 66645  41.4683  58.0720 0009668 337.6224  22.4191 15.58760067262995
SOYUZ-MS 28             
1 66664U 25275A   25339.89793005  .00013789  00000+0  25488-3 0  9999
2 66664  51.6298 176.3533 0003552 209.1564 150.9226 15.49346308  1280
1998-067XS              
1 66906U 98067XS  25339.96093990  .00035803  00000+0  63071-3 0  9992
2 66906  51.6296 176.0242 0004251 173.8780 186.2262 15.50072979   569
1998-067XT              
1 66907U 98067XT  25339.96065651  .00073478  00000+0  12673-2 0  9997
2 66907  51.6292 176.0227 0005300 190.4344 169.6536 15.50347782   562
1998-067XU              
1 66908U 98067XU  25339.83164575  .00072359  00000+0  12461-2 0  9991
2 66908  51.6293 176.6606 0005501 189.4438 170.6448 15.50396969   549
1998-067XV              
1 66909U 98067XV  25339.76717490  .00084238  00000+0  14471-2 0  9996
2 66909  51.6292 176.9805 0005364 189.9534 170.1350 15.50399103   531
1998-067XW              
1 66910U 98067XW  25339.95989552  .00072500  00000+0  12356-2 0  9998
2 66910  51.6293 176.0172 0006320 176.8088 183.2943 15.50685227   565
1998-067XX              
1 66911U 98067XX  25339.89539740  .00080432  00000+0  13660-2 0  9994
2 66911  51.6291 176.3366 0006232 176.6930 183.4102 15.50737311   547
1998-067XY              
1 66912U 98067XY  25339.83183455  .00064818  00000+0  11244-2 0  9993
2 66912  51.6293 176.6617 0005378 189.6271 170.4616 15.50237673   535
