CCSDS_OMM_VERS = 2.0
CREATION_DATE  = 
ORIGINATOR     = 

OBJECT_NAME    = SHENZHOU-22
OBJECT_ID      = 2025-272A
CENTER_NAME    = EARTH
REF_FRAME      = TEME
TIME_SYSTEM    = UTC
MEAN_ELEMENT_THEORY = SGP/SGP4

EPOCH          = 2025-12-05T22:10:41.358720
MEAN_MOTION    = 15.58760067
ECCENTRICITY   = .00096689
INCLINATION    = 41.4683
RA_OF_ASC_NODE = 58.0720
ARG_OF_PERICENTER = 337.6224
MEAN_ANOMALY   = 22.4191

EPHEMERIS_TYPE = 0
CLASSIFICATION_TYPE = U
NORAD_CAT_ID   = 66645
ELEMENT_SET_NO = 999
REV_AT_EPOCH   = 26299
BSTAR          = .39600638E-3
MEAN_MOTION_DOT = .31271E-3
MEAN_MOTION_DDOT = 0

CCSDS_OMM_VERS = 2.0
CREATION_DATE  = 
ORIGINATOR     = 

OBJECT_NAME    = SOYUZ-MS 28
OBJECT_ID      = 2025-275A
CENTER_NAME    = EARTH
REF_FRAME      = TEME
TIME_SYSTEM    = UTC
MEAN_ELEMENT_THEORY = SGP/SGP4

EPOCH          = 2025-12-05T21:33:01.156320
MEAN_MOTION    = 15.49346308
ECCENTRICITY   = .00035522
INCLINATION    = 51.6298
RA_OF_ASC_NODE = 176.3533
ARG_OF_PERICENTER = 209.1564
MEAN_ANOMALY   = 150.9226

EPHEMERIS_TYPE = 0
CLASSIFICATION_TYPE = U
NORAD_CAT_ID   = 66664
ELEMENT_SET_NO = 999
REV_AT_EPOCH   = 128
BSTAR          = .2548829E-3
MEAN_MOTION_DOT = .13789E-3
MEAN_MOTION_DDOT = 0

CCSDS_OMM_VERS = 2.0
CREATION_DATE  = 
ORIGINATOR     = 

OBJECT_NAME    = 1998-067XS
OBJECT_ID      = 1998-067XS
CENTER_NAME    = EARTH
REF_FRAME      = TEME
TIME_SYSTEM    = UTC
MEAN_ELEMENT_THEORY = SGP/SGP4

EPOCH          = 2025-12-05T23:03:45.207360
MEAN_MOTION    = 15.50072979
ECCENTRICITY   = .00042511
INCLINATION    = 51.6296
RA_OF_ASC_NODE = 176.0242
ARG_OF_PERICENTER = 173.8780
MEAN_ANOMALY   = 186.2262

EPHEMERIS_TYPE = 0
CLASSIFICATION_TYPE = U
NORAD_CAT_ID   = 66906
ELEMENT_SET_NO = 999
REV_AT_EPOCH   = 56
BSTAR          = .63070606E-3
MEAN_MOTION_DOT = .35803E-3
MEAN_MOTION_DDOT = 0

CCSDS_OMM_VERS = 2.0
CREATION_DATE  = 
ORIGINATOR     = 

OBJECT_NAME    = 1998-067XT
OBJECT_ID      = 1998-067XT
CENTER_NAME    = EARTH
REF_FRAME      = TEME
TIME_SYSTEM    = UTC
MEAN_ELEMENT_THEORY = SGP/SGP4

EPOCH          = 2025-12-05T23:03:20.722464
MEAN_MOTION    = 15.50347782
ECCENTRICITY   = .00053008
INCLINATION    = 51.6292
RA_OF_ASC_NODE = 176.0227
ARG_OF_PERICENTER = 190.4344
MEAN_ANOMALY   = 169.6536

EPHEMERIS_TYPE = 0
CLASSIFICATION_TYPE = U
NORAD_CAT_ID   = 66907
ELEMENT_SET_NO = 999
REV_AT_EPOCH   = 56
BSTAR          = .12672984E-2
MEAN_MOTION_DOT = .73478E-3
MEAN_MOTION_DDOT = 0

CCSDS_OMM_VERS = 2.0
CREATION_DATE  = 
ORIGINATOR     = 

OBJECT_NAME    = 1998-067XU
OBJECT_ID      = 1998-067XU
CENTER_NAME    = EARTH
REF_FRAME      = TEME
TIME_SYSTEM    = UTC
MEAN_ELEMENT_THEORY = SGP/SGP4

EPOCH          = 2025-12-05T19:57:34.192800
MEAN_MOTION    = 15.50396969
ECCENTRICITY   = .00055014
INCLINATION    = 51.6293
RA_OF_ASC_NODE = 176.6606
ARG_OF_PERICENTER = 189.4438
MEAN_ANOMALY   = 170.6448

EPHEMERIS_TYPE = 0
CLASSIFICATION_TYPE = U
NORAD_CAT_ID   = 66908
ELEMENT_SET_NO = 999
REV_AT_EPOCH   = 54
BSTAR          = .12460713E-2
MEAN_MOTION_DOT = .72359E-3
MEAN_MOTION_DDOT = 0

CCSDS_OMM_VERS = 2.0
CREATION_DATE  = 
ORIGINATOR     = 

OBJECT_NAME    = 1998-067XV
OBJECT_ID      = 1998-067XV
CENTER_NAME    = EARTH
REF_FRAME      = TEME
TIME_SYSTEM    = UTC
MEAN_ELEMENT_THEORY = SGP/SGP4

EPOCH          = 2025-12-05T18:24:43.911360
MEAN_MOTION    = 15.50399103
ECCENTRICITY   = .00053649
INCLINATION    = 51.6292
RA_OF_ASC_NODE = 176.9805
ARG_OF_PERICENTER = 189.9534
MEAN_ANOMALY   = 170.1350

EPHEMERIS_TYPE = 0
CLASSIFICATION_TYPE = U
NORAD_CAT_ID   = 66909
ELEMENT_SET_NO = 999
REV_AT_EPOCH   = 53
BSTAR          = .14470913E-2
MEAN_MOTION_DOT = .84238E-3
MEAN_MOTION_DDOT = 0

CCSDS_OMM_VERS = 2.0
CREATION_DATE  = 
ORIGINATOR     = 

OBJECT_NAME    = 1998-067XW
OBJECT_ID      = 1998-067XW
CENTER_NAME    = EARTH
REF_FRAME      = TEME
TIME_SYSTEM    = UTC
MEAN_ELEMENT_THEORY = SGP/SGP4

EPOCH          = 2025-12-05T23:02:14.972928
MEAN_MOTION    = 15.50685227
ECCENTRICITY   = .00063204
INCLINATION    = 51.6293
RA_OF_ASC_NODE = 176.0172
ARG_OF_PERICENTER = 176.8088
MEAN_ANOMALY   = 183.2943

EPHEMERIS_TYPE = 0
CLASSIFICATION_TYPE = U
NORAD_CAT_ID   = 66910
ELEMENT_SET_NO = 999
REV_AT_EPOCH   = 56
BSTAR          = .12355568E-2
MEAN_MOTION_DOT = .725E-3
MEAN_MOTION_DDOT = 0

CCSDS_OMM_VERS = 2.0
CREATION_DATE  = 
ORIGINATOR     = 

OBJECT_NAME    = 1998-067XX
OBJECT_ID      = 1998-067XX
CENTER_NAME    = EARTH
REF_FRAME      = TEME
TIME_SYSTEM    = UTC
MEAN_ELEMENT_THEORY = SGP/SGP4

EPOCH          = 2025-12-05T21:29:22.335360
MEAN_MOTION    = 15.50737311
ECCENTRICITY   = .00062325
INCLINATION    = 51.6291
RA_OF_ASC_NODE = 176.3366
ARG_OF_PERICENTER = 176.6930
MEAN_ANOMALY   = 183.4102

EPHEMERIS_TYPE = 0
CLASSIFICATION_TYPE = U
NORAD_CAT_ID   = 66911
ELEMENT_SET_NO = 999
REV_AT_EPOCH   = 54
BSTAR          = .13660051E-2
MEAN_MOTION_DOT = .80432E-3
MEAN_MOTION_DDOT = 0

CCSDS_OMM_VERS = 2.0
CREATION_DATE  = 
ORIGINATOR     = 

OBJECT_NAME    = 1998-067XY
OBJECT_ID      = 1998-067XY
CENTER_NAME    = EARTH
REF_FRAME      = TEME
TIME_SYSTEM    = UTC
MEAN_ELEMENT_THEORY = SGP/SGP4

EPOCH          = 2025-12-05T19:57:50.505120
MEAN_MOTION    = 15.50237673
ECCENTRICITY   = .00053781
INCLINATION    = 51.6293
RA_OF_ASC_NODE = 176.6617
ARG_OF_PERICENTER = 189.6271
MEAN_ANOMALY   = 170.4616

EPHEMERIS_TYPE = 0
CLASSIFICATION_TYPE = U
NORAD_CAT_ID   = 66912
ELEMENT_SET_NO = 999
REV_AT_EPOCH   = 53
BSTAR          = .11244391E-2
MEAN_MOTION_DOT = .64818E-3
MEAN_MOTION_DDOT = 0

